{
  "type": "FeatureCollection",
  "features": [
    {
      "type": "Feature",
      "properties": {
        "norad_id": 36744,
        "name": "COMS 1",
        "group": "weather",
        "lat": 0.3656488485063711,
        "lon": 82.41411060092874,
        "alt_km": 35789.51271796069,
        "timestamp": "2025-12-24T14:43:28.638228+00:00",
        "meta_object_name": "COMS 1",
        "meta_object_id": "2010-032A",
        "meta_epoch": "2025-12-23T21:08:51.785952",
        "meta_mean_motion": 1.0027056,
        "meta_eccentricity": 8.154e-05,
        "meta_inclination": 4.3655,
        "meta_ra_of_asc_node": 77.8722,
        "meta_arg_of_pericenter": 213.5288,
        "meta_mean_anomaly": 246.655,
        "meta_ephemeris_type": 0,
        "meta_classification_type": "U",
        "meta_norad_cat_id": 36744,
        "meta_element_set_no": 999,
        "meta_rev_at_epoch": 4933,
        "meta_bstar": 0,
        "meta_mean_motion_dot": -3.25e-06,
        "meta_mean_motion_ddot": 0,
        "tle_line1": "1 36744U 10032A   25357.88115493 -.00000325  00000+0  00000+0 0  9990",
        "tle_line2": "2 36744   4.3655  77.8722 0000815 213.5288 246.6550  1.00270560 49333"
      },
      "geometry": {
        "type": "Point",
        "coordinates": [
          82.41411060092874,
          0.3656488485063711
        ]
      }
    },
    {
      "type": "Feature",
      "properties": {
        "norad_id": 37214,
        "name": "FENGYUN 3B",
        "group": "weather",
        "lat": -2.649612568743761,
        "lon": 39.09254267807653,
        "alt_km": 833.3156025440667,
        "timestamp": "2025-12-24T14:43:28.638242+00:00",
        "meta_object_name": "FENGYUN 3B",
        "meta_object_id": "2010-059A",
        "meta_epoch": "2025-12-24T06:52:46.528032",
        "meta_mean_motion": 14.14792534,
        "meta_eccentricity": 0.00215239,
        "meta_inclination": 98.9887,
        "meta_ra_of_asc_node": 38.3438,
        "meta_arg_of_pericenter": 324.6368,
        "meta_mean_anomaly": 168.7237,
        "meta_ephemeris_type": 0,
        "meta_classification_type": "U",
        "meta_norad_cat_id": 37214,
        "meta_element_set_no": 999,
        "meta_rev_at_epoch": 78269,
        "meta_bstar": 0.00010776317,
        "meta_mean_motion_dot": 1.63e-06,
        "meta_mean_motion_ddot": 0,
        "tle_line1": "1 37214U 10059A   25358.28664963  .00000163  00000+0  10776-3 0  9992",
        "tle_line2": "2 37214  98.9887  38.3438 0021523 324.6368 168.7237 14.14792534782698"
      },
      "geometry": {
        "type": "Point",
        "coordinates": [
          39.09254267807653,
          -2.649612568743761
        ]
      }
    },
    {
      "type": "Feature",
      "properties": {
        "norad_id": 37849,
        "name": "SUOMI NPP",
        "group": "weather",
        "lat": 38.908974819804605,
        "lon": -71.3163028114365,
        "alt_km": 823.0400046723289,
        "timestamp": "2025-12-24T14:43:28.638253+00:00",
        "meta_object_name": "SUOMI NPP",
        "meta_object_id": "2011-061A",
        "meta_epoch": "2025-12-22T15:10:21.732672",
        "meta_mean_motion": 14.19516903,
        "meta_eccentricity": 0.00024883,
        "meta_inclination": 98.7787,
        "meta_ra_of_asc_node": 293.8852,
        "meta_arg_of_pericenter": 103.0781,
        "meta_mean_anomaly": 257.0673,
        "meta_ephemeris_type": 0,
        "meta_classification_type": "U",
        "meta_norad_cat_id": 37849,
        "meta_element_set_no": 999,
        "meta_rev_at_epoch": 73339,
        "meta_bstar": 6.3406935e-05,
        "meta_mean_motion_dot": 8.9e-07,
        "meta_mean_motion_ddot": 0,
        "tle_line1": "1 37849U 11061A   25356.63219598  .00000089  00000+0  63407-4 0  9994",
        "tle_line2": "2 37849  98.7787 293.8852 0002488 103.0781 257.0673 14.19516903733392"
      },
      "geometry": {
        "type": "Point",
        "coordinates": [
          -71.3163028114365,
          38.908974819804605
        ]
      }
    },
    {
      "type": "Feature",
      "properties": {
        "norad_id": 38552,
        "name": "METEOSAT-10 (MSG-3)",
        "group": "weather",
        "lat": -4.084061509101221,
        "lon": -45.50165198591325,
        "alt_km": 35782.23700151298,
        "timestamp": "2025-12-24T14:43:28.638266+00:00",
        "meta_object_name": "METEOSAT-10 (MSG-3)",
        "meta_object_id": "2012-035B",
        "meta_epoch": "2025-12-23T23:24:15.412032",
        "meta_mean_motion": 1.00266372,
        "meta_eccentricity": 0.0001439,
        "meta_inclination": 4.2534,
        "meta_ra_of_asc_node": 61.6917,
        "meta_arg_of_pericenter": 267.4688,
        "meta_mean_anomaly": 114.9679,
        "meta_ephemeris_type": 0,
        "meta_classification_type": "U",
        "meta_norad_cat_id": 38552,
        "meta_element_set_no": 999,
        "meta_rev_at_epoch": 4910,
        "meta_bstar": 0,
        "meta_mean_motion_dot": 1.4e-07,
        "meta_mean_motion_ddot": 0,
        "tle_line1": "1 38552U 12035B   25357.97517838  .00000014  00000+0  00000+0 0  9997",
        "tle_line2": "2 38552   4.2534  61.6917 0001439 267.4688 114.9679  1.00266372 49109"
      },
      "geometry": {
        "type": "Point",
        "coordinates": [
          -45.50165198591325,
          -4.084061509101221
        ]
      }
    },
    {
      "type": "Feature",
      "properties": {
        "norad_id": 38771,
        "name": "METOP-B",
        "group": "weather",
        "lat": -27.202645341777558,
        "lon": 52.872578969168124,
        "alt_km": 828.2343978417412,
        "timestamp": "2025-12-24T14:43:28.638277+00:00",
        "meta_object_name": "METOP-B",
        "meta_object_id": "2012-049A",
        "meta_epoch": "2025-12-24T06:24:24.848928",
        "meta_mean_motion": 14.21412635,
        "meta_eccentricity": 0.00032581,
        "meta_inclination": 98.6783,
        "meta_ra_of_asc_node": 48.0295,
        "meta_arg_of_pericenter": 120.0473,
        "meta_mean_anomaly": 240.1027,
        "meta_ephemeris_type": 0,
        "meta_classification_type": "U",
        "meta_norad_cat_id": 38771,
        "meta_element_set_no": 999,
        "meta_rev_at_epoch": 68841,
        "meta_bstar": 7.8176822e-05,
        "meta_mean_motion_dot": 1.27e-06,
        "meta_mean_motion_ddot": 0,
        "tle_line1": "1 38771U 12049A   25358.26695427  .00000127  00000+0  78177-4 0  9999",
        "tle_line2": "2 38771  98.6783  48.0295 0003258 120.0473 240.1027 14.21412635688414"
      },
      "geometry": {
        "type": "Point",
        "coordinates": [
          52.872578969168124,
          -27.202645341777558
        ]
      }
    },
    {
      "type": "Feature",
      "properties": {
        "norad_id": 39216,
        "name": "INSAT-3D",
        "group": "weather",
        "lat": -0.007529471125400093,
        "lon": 83.77696343891269,
        "alt_km": 35792.487388080175,
        "timestamp": "2025-12-24T14:43:28.638289+00:00",
        "meta_object_name": "INSAT-3D",
        "meta_object_id": "2013-038B",
        "meta_epoch": "2025-12-23T20:35:46.548096",
        "meta_mean_motion": 1.00275086,
        "meta_eccentricity": 0.0001868,
        "meta_inclination": 1.4718,
        "meta_ra_of_asc_node": 84.8718,
        "meta_arg_of_pericenter": 154.9111,
        "meta_mean_anomaly": 291.3295,
        "meta_ephemeris_type": 0,
        "meta_classification_type": "U",
        "meta_norad_cat_id": 39216,
        "meta_element_set_no": 999,
        "meta_rev_at_epoch": 4532,
        "meta_bstar": 0,
        "meta_mean_motion_dot": -3.18e-06,
        "meta_mean_motion_ddot": 0,
        "tle_line1": "1 39216U 13038B   25357.85817764 -.00000318  00000+0  00000+0 0  9995",
        "tle_line2": "2 39216   1.4718  84.8718 0001868 154.9111 291.3295  1.00275086 45329"
      },
      "geometry": {
        "type": "Point",
        "coordinates": [
          83.77696343891269,
          -0.007529471125400093
        ]
      }
    },
    {
      "type": "Feature",
      "properties": {
        "norad_id": 39260,
        "name": "FENGYUN 3C",
        "group": "weather",
        "lat": -24.277213713260966,
        "lon": -20.428813868853158,
        "alt_km": 856.1186120557586,
        "timestamp": "2025-12-24T14:43:28.638300+00:00",
        "meta_object_name": "FENGYUN 3C",
        "meta_object_id": "2013-052A",
        "meta_epoch": "2025-12-24T06:21:34.379136",
        "meta_mean_motion": 14.15699654,
        "meta_eccentricity": 0.00149203,
        "meta_inclination": 98.4778,
        "meta_ra_of_asc_node": 335.3823,
        "meta_arg_of_pericenter": 162.7489,
        "meta_mean_anomaly": 197.4196,
        "meta_ephemeris_type": 0,
        "meta_classification_type": "U",
        "meta_norad_cat_id": 39260,
        "meta_element_set_no": 999,
        "meta_rev_at_epoch": 63381,
        "meta_bstar": 7.815553e-05,
        "meta_mean_motion_dot": 1.12e-06,
        "meta_mean_motion_ddot": 0,
        "tle_line1": "1 39260U 13052A   25358.26498124  .00000112  00000+0  78156-4 0  9994",
        "tle_line2": "2 39260  98.4778 335.3823 0014920 162.7489 197.4196 14.15699654633813"
      },
      "geometry": {
        "type": "Point",
        "coordinates": [
          -20.428813868853158,
          -24.277213713260966
        ]
      }
    }
  ]
}